NORAD_CAT_ID,OBJECT_NAME,OBJECT_TYPE,EPOCH,MEAN_MOTION,ECCENTRICITY,INCLINATION,RA_OF_ASC_NODE,ARG_OF_PERICENTER,MEAN_ANOMALY,BSTAR,MEAN_MOTION_DOT,MEAN_MOTION_DDOT,TLE_LINE0,TLE_LINE1,TLE_LINE2,SEMIMAJOR_AXIS,PERIOD,APOGEE,PERIGEE,DECAYED
53783.0,STARLINK-4536,PAYLOAD,2023-01-18 07:33:16,15.08883915,0.0001903,53.2173,20.3096,80.0749,280.0458,0.0025406,0.00040427,0.0,0 STARLINK-4536,1 53783U 22111L   23018.31477995  .00040427  00000-0  25406-2 0  9998,2 53783  53.2173  20.3096 0001903  80.0749 280.0458 15.08883915 20636,6917.746,95.435,540.928,538.295,0.0
53783.0,STARLINK-4536,PAYLOAD,2023-01-18 17:05:35,15.08874672,0.0002124,53.2175,18.5254,79.012,281.1111,0.0015605,0.00024659,0.0,0 STARLINK-4536,1 53783U 22111L   23018.71221726  .00024659  00000-0  15605-2 0  9990,2 53783  53.2175  18.5254 0002124  79.0120 281.1111 15.08874672 19883,6917.774,95.435,541.109,538.17,0.0
53783.0,STARLINK-4536,PAYLOAD,2023-01-19 05:48:40,15.08867998,0.0002628,53.217,16.1464,82.8661,277.2629,0.001704,0.00026957,0.0,0 STARLINK-4536,1 53783U 22111L   23019.24213477  .00026957  00000-0  17040-2 0  9991,2 53783  53.2170  16.1464 0002628  82.8661 277.2629 15.08867998 19968,6917.795,95.436,541.4780000000001,537.842,0.0
53783.0,STARLINK-4536,PAYLOAD,2023-01-19 08:59:26,15.08860741,0.0001626,53.217,15.5516,86.5847,273.5331,0.0021176,0.00033594,0.0,0 STARLINK-4536,1 53783U 22111L   23019.37461427  .00033594  00000-0  21176-2 0  9995,2 53783  53.2170  15.5516 0001626  86.5847 273.5331 15.08860741 19983,6917.816999999999,95.436,540.807,538.557,0.0
53783.0,STARLINK-4536,PAYLOAD,2023-01-19 23:17:55,15.08847443,0.0001501999999999,53.2173,12.8756,93.2179,266.8985,0.0013425,0.00021147,0.0,0 STARLINK-4536,1 53783U 22111L   23019.97077979  .00021147  00000-0  13425-2 0  9995,2 53783  53.2173  12.8756 0001502  93.2179 266.8985 15.08847443 20074,6917.858,95.437,540.762,538.684,0.0
53783.0,STARLINK-4536,PAYLOAD,2023-01-20 08:50:14,15.08846855,0.0001591,53.2177,11.0916,86.8778,273.2396,0.0014299,0.00022546,0.0,0 STARLINK-4536,1 53783U 22111L   23020.36822185  .00022546  00000-0  14299-2 0  9991,2 53783  53.2177  11.0916 0001591  86.8778 273.2396 15.08846855 20139,6917.859,95.437,540.825,538.624,0.0
53783.0,STARLINK-4536,PAYLOAD,2023-01-20 23:08:43,15.08848789,0.0002356999999999,53.2173,8.4135,92.706,267.4202,0.0019383,0.00030703,0.0,0 STARLINK-4536,1 53783U 22111L   23020.96438792  .00030703  00000-0  19383-2 0  9997,2 53783  53.2173   8.4135 0002357  92.7060 267.4202 15.08848789 20228,6917.854,95.437,541.349,538.0880000000001,0.0
53783.0,STARLINK-4536,PAYLOAD,2023-01-21 05:30:15,15.08848703,0.0001719,53.2175,7.2251,93.8409,266.278,0.0014025,0.00022109,0.0,0 STARLINK-4536,1 53783U 22111L   23021.22934618  .00022109  00000-0  14025-2 0  9994,2 53783  53.2175   7.2251 0001719  93.8409 266.2780 15.08848703 20264,6917.854,95.437,540.908,538.53,0.0
53783.0,STARLINK-4536,PAYLOAD,2023-01-22 05:21:01,15.08868103,0.0001672,53.2175,2.7622,91.4811,268.6372,0.0010321,0.00016189,0.0,0 STARLINK-4536,1 53783U 22111L   23022.22293880  .00016189  00000-0  10321-2 0  9990,2 53783  53.2175   2.7622 0001672  91.4811 268.6372 15.08868103 20411,6917.794,95.436,540.816,538.503,0.0
53783.0,STARLINK-4536,PAYLOAD,2023-01-23 06:47:12,15.08834454,0.0001433,53.2186,358.00699999999995,78.0239,282.0914,0.0010099,0.00015819,0.0,0 STARLINK-4536,1 53783U 22111L   23023.28278723  .00015819  00000-0  10099-2 0  9997,2 53783  53.2186 358.0070 0001433  78.0239 282.0914 15.08834454 20578,6917.897,95.438,540.754,538.771,0.0
53783.0,STARLINK-4536,PAYLOAD,2023-01-23 14:44:08,15.0883457,0.0001663,53.2196,356.5176,66.8768,293.2399,0.00053764,8.278e-05,0.0,0 STARLINK-4536,1 53783U 22111L   23023.61399040  .00008278  00000-0  53764-3 0  9998,2 53783  53.2196 356.5176 0001663  66.8768 293.2399 15.08834570 20622,6917.897,95.438,540.9119999999999,538.612,0.0
53783.0,STARLINK-4536,PAYLOAD,2023-01-24 08:13:22,15.08865002,0.0001447,53.2187,353.2487,83.9608,276.1549,0.0014828,0.00023406,0.0,0 STARLINK-4536,1 53783U 22111L   23024.34262559  .00023406  00000-0  14828-2 0  9990,2 53783  53.2187 353.2487 0001447  83.9608 276.1549 15.08865002 20737,6917.804,95.436,540.67,538.668,0.0
53783.0,STARLINK-4536,PAYLOAD,2023-01-24 14:34:55,15.08852745,0.0001476999999999,53.2191,352.0582,75.9714,284.1442,0.00079194,0.00012343,0.0,0 STARLINK-4536,1 53783U 22111L   23024.60758764  .00012343  00000-0  79194-3 0  9993,2 53783  53.2191 352.0582 0001477  75.9714 284.1442 15.08852745 20772,6917.840999999999,95.437,540.7280000000001,538.685,0.0
53783.0,STARLINK-4536,PAYLOAD,2023-01-25 03:18:00,15.08850017,0.0001315,53.2193,349.6812,89.5715,270.5428,0.00059395,9.18e-05,0.0,0 STARLINK-4536,1 53783U 22111L   23025.13750819  .00009180  00000-0  59395-3 0  9991,2 53783  53.2193 349.6812 0001315  89.5715 270.5428 15.08850017 20857,6917.85,95.437,540.624,538.805,0.0
53783.0,STARLINK-4536,PAYLOAD,2023-01-25 08:04:10,15.08842911,0.0001668,53.2188,348.7894,81.5304,278.5877,0.0008058,0.00012561,0.0,0 STARLINK-4536,1 53783U 22111L   23025.33623021  .00012561  00000-0  80580-3 0  9994,2 53783  53.2188 348.7894 0001668  81.5304 278.5877 15.08842911 21691,6917.871,95.437,540.89,538.5830000000001,0.0
53783.0,STARLINK-4536,PAYLOAD,2023-01-25 14:25:42,15.08840965,0.000196,53.2195,347.5984,76.5561,283.5649,0.00032277,4.853e-05,0.0,0 STARLINK-4536,1 53783U 22111L   23025.60119164  .00004853  00000-0  32277-3 0  9997,2 53783  53.2195 347.5984 0001960  76.5561 283.5649 15.08840965 20925,6917.877,95.437,541.0980000000001,538.387,0.0
53783.0,STARLINK-4536,PAYLOAD,2023-01-26 03:08:48,15.08836945,0.0001585,53.2189,345.2205,77.8293,282.2876,0.00015575,2.191e-05,0.0,0 STARLINK-4536,1 53783U 22111L   23026.13111271  .00002191  00000-0  15575-3 0  9992,2 53783  53.2189 345.2205 0001585  77.8293 282.2876 15.08836945 21818,6917.89,95.438,540.851,538.658,0.0
53783.0,STARLINK-4536,PAYLOAD,2023-01-27 06:10:21,15.08851752,0.0001453,53.22,340.1644,81.9868,278.1289,0.0003063,4.592e-05,0.0,0 STARLINK-4536,1 53783U 22111L   23027.25718797  .00004592  00000-0  30630-3 0  9998,2 53783  53.2200 340.1644 0001453  81.9868 278.1289 15.08851752 21175,6917.844,95.437,540.715,538.7040000000001,0.0
53783.0,STARLINK-4536,PAYLOAD,2023-01-28 02:50:22,15.08836369,0.0001284,53.2192,336.2989,79.5018,280.6118,7.1162e-05,8.45e-06,0.0,0 STARLINK-4536,1 53783U 22111L   23028.11831634  .00000845  00000-0  71162-4 0  9993,2 53783  53.2192 336.2989 0001284  79.5018 280.6118 15.08836369 21306,6917.891,95.438,540.645,538.868,0.0
53783.0,STARLINK-4536,PAYLOAD,2023-01-28 20:19:36,15.08845238,0.0001225,53.2175,333.0299,80.1773,279.9358,0.0002215,3.24e-05,0.0,0 STARLINK-4536,1 53783U 22111L   23028.84695446  .00003240  00000-0  22150-3 0  9996,2 53783  53.2175 333.0299 0001225  80.1773 279.9358 15.08845238 22221,6917.864,95.437,540.577,538.882,0.0
53783.0,STARLINK-4536,PAYLOAD,2023-01-29 05:51:55,15.0886013,0.0001266,53.2179,331.2457,81.6126,278.5009,0.00072565,0.00011286,0.0,0 STARLINK-4536,1 53783U 22111L   23029.24439002  .00011286  00000-0  72565-3 0  9999,2 53783  53.2179 331.2457 0001266  81.6126 278.5009 15.08860130 21476,6917.819,95.436,540.56,538.808,0.0
53783.0,STARLINK-4536,PAYLOAD,2023-01-29 20:10:23,15.08851934,0.0001307,53.2171,328.5682,82.1843,277.9298,0.0002915,4.356e-05,0.0,0 STARLINK-4536,1 53783U 22111L   23029.84055056  .00004356  00000-0  29150-3 0  9990,2 53783  53.2171 328.5682 0001307  82.1843 277.9298 15.08851934 21560,6917.844,95.437,540.613,538.805,0.0
53783.0,STARLINK-4536,PAYLOAD,2023-01-30 05:42:41,15.08866073,0.0001305,53.2179,326.7854,73.0113,287.1022,0.00067537,0.00010484,0.0,0 STARLINK-4536,1 53783U 22111L   23030.23798436  .00010484  00000-0  67537-3 0  9991,2 53783  53.2179 326.7854 0001305  73.0113 287.1022 15.08866073 21621,6917.801,95.436,540.568,538.763,0.0
53783.0,STARLINK-4536,PAYLOAD,2023-01-30 23:11:57,15.08828984,0.00011,53.218,323.5143,76.7428,283.3687,0.00015013,2.102e-05,0.0,0 STARLINK-4536,1 53783U 22111L   23030.96663678  .00002102  00000-0  15013-3 0  9990,2 53783  53.2180 323.5143 0001100  76.7428 283.3687 15.08828984 21737,6917.914,95.438,540.54,539.018,0.0
53783.0,STARLINK-4536,PAYLOAD,2023-01-31 05:33:30,15.08821011,0.0001183,53.2183,322.3248,78.6642,281.4483,-0.00011661,-2.142e-05,0.0,0 STARLINK-4536,1 53783U 22111L   23031.23160247 -.00002142  00000-0 -11661-3 0  9996,2 53783  53.2183 322.3248 0001183  78.6642 281.4483 15.08821011 21774,6917.938,95.439,540.622,538.985,0.0
53783.0,STARLINK-4536,PAYLOAD,2023-01-31 18:16:35,15.08834038,0.00011,53.2187,319.9462,80.6001,279.5115,0.00022961,3.368e-05,0.0,0 STARLINK-4536,1 53783U 22111L   23031.76152408  .00003368  00000-0  22961-3 0  9998,2 53783  53.2187 319.9462 0001100  80.6001 279.5115 15.08834038 21851,6917.899,95.438,540.525,539.003,0.0
53783.0,STARLINK-4536,PAYLOAD,2023-02-01 03:48:54,15.08853341,0.0001189,53.2184,318.1622,79.135,280.9776,0.00097577,0.00015281,0.0,0 STARLINK-4536,1 53783U 22111L   23032.15896252  .00015281  00000-0  97577-3 0  9996,2 53783  53.2184 318.1622 0001189  79.1350 280.9776 15.08853341 21918,6917.84,95.437,540.527,538.882,0.0
53783.0,STARLINK-4536,PAYLOAD,2023-02-02 03:39:40,15.08864034,0.0001416,53.2185,313.703,76.6033,283.5117,0.00055229,8.518e-05,0.0,0 STARLINK-4536,1 53783U 22111L   23033.15255367  .00008518  00000-0  55229-3 0  9996,2 53783  53.2185 313.7030 0001416  76.6033 283.5117 15.08864034 22062,6917.807,95.436,540.651,538.692,0.0
53783.0,STARLINK-4536,PAYLOAD,2023-02-02 19:33:31,15.08847793,0.00014,53.2189,310.7288,83.1628,276.9524,2.9226e-05,1.77e-06,0.0,0 STARLINK-4536,1 53783U 22111L   23033.81495209  .00000177  00000-0  29226-4 0  9992,2 53783  53.2189 310.7288 0001400  83.1628 276.9524 15.08847793 22166,6917.857,95.437,540.69,538.753,0.0
